GLOBALSTAR M045         
1 25676U 99019A   25016.36631635 -.00000106  00000+0 -10718-3 0  9999
2 25676  51.9992  17.9895 0000202 292.1818 215.0286 12.27055264174995
GLOBALSTAR M019         
1 25677U 99019B   25017.50051394 -.00000184  00000+0 -97735-3 0  9995
2 25677  51.9871 134.5178 0001240  67.1485  13.1341 12.13869088167033
GLOBALSTAR M044         
1 25678U 99019C   25017.45652543 -.00000052  00000+0  44463-3 0  9996
2 25678  51.9978  67.1447 0006951 113.3406  19.6788 11.90248639153356
GLOBALSTAR M042         
1 25679U 99019D   25016.69049516 -.00000050  00000+0  39649-3 0  9990
2 25679  52.0009 118.6308 0002278   0.9120 147.4637 12.22076626166734
GLOBALSTAR M025         
1 25770U 99031A   25016.58469149 -.00000088  00000+0 -62320-3 0  9996
2 25770  51.9799 150.4684 0000989 198.9236 271.2673 11.22558660464687
GLOBALSTAR M049         
1 25771U 99031B   25017.43731676 -.00000069  00000+0 -13194-3 0  9993
2 25771  51.9837 175.6802 0004608 114.7838 245.3438 11.12111018100654
GLOBALSTAR M047         
1 25772U 99031C   25017.40809203 -.00000077  00000+0 -20013-3 0  9990
2 25772  51.9794 187.1227 0016328   8.8145 351.2945 11.31926102128808
GLOBALSTAR M052         
1 25773U 99031D   25016.48835321 -.00000011  00000+0  18264-2 0  9999
2 25773  51.9876 288.6449 0001969 299.7590 235.7584 11.15057009461586
