<?xml version="1.0" encoding="UTF-8"?>
<ndm xmlns:xsi="http://www.w3.org/2001/XMLSchema-instance" xsi:noNamespaceSchemaLocation="https://sanaregistry.org/r/ndmxml_unqualified/ndmxml-2.0.0-master-2.0.xsd">
<omm id="CCSDS_OMM_VERS" version="2.0">
<header><CREATION_DATE/><ORIGINATOR/></header><body><segment><metadata><OBJECT_NAME>GLOBALSTAR M045</OBJECT_NAME><OBJECT_ID>1999-019A</OBJECT_ID><CENTER_NAME>EARTH</CENTER_NAME><REF_FRAME>TEME</REF_FRAME><TIME_SYSTEM>UTC</TIME_SYSTEM><MEAN_ELEMENT_THEORY>SGP4</MEAN_ELEMENT_THEORY></metadata><data><meanElements><EPOCH>2025-01-16T08:47:29.732640</EPOCH><MEAN_MOTION>12.27055264</MEAN_MOTION><ECCENTRICITY>.0000202</ECCENTRICITY><INCLINATION>51.9992</INCLINATION><RA_OF_ASC_NODE>17.9895</RA_OF_ASC_NODE><ARG_OF_PERICENTER>292.1818</ARG_OF_PERICENTER><MEAN_ANOMALY>215.0286</MEAN_ANOMALY></meanElements><tleParameters><EPHEMERIS_TYPE>0</EPHEMERIS_TYPE><CLASSIFICATION_TYPE>U</CLASSIFICATION_TYPE><NORAD_CAT_ID>25676</NORAD_CAT_ID><ELEMENT_SET_NO>999</ELEMENT_SET_NO><REV_AT_EPOCH>17499</REV_AT_EPOCH><BSTAR>-.10718E-3</BSTAR><MEAN_MOTION_DOT>-.106E-5</MEAN_MOTION_DOT><MEAN_MOTION_DDOT>0</MEAN_MOTION_DDOT></tleParameters></data></segment></body></omm>
<omm id="CCSDS_OMM_VERS" version="2.0">
<header><CREATION_DATE/><ORIGINATOR/></header><body><segment><metadata><OBJECT_NAME>GLOBALSTAR M019</OBJECT_NAME><OBJECT_ID>1999-019B</OBJECT_ID><CENTER_NAME>EARTH</CENTER_NAME><REF_FRAME>TEME</REF_FRAME><TIME_SYSTEM>UTC</TIME_SYSTEM><MEAN_ELEMENT_THEORY>SGP4</MEAN_ELEMENT_THEORY></metadata><data><meanElements><EPOCH>2025-01-17T12:00:44.404416</EPOCH><MEAN_MOTION>12.13869088</MEAN_MOTION><ECCENTRICITY>.000124</ECCENTRICITY><INCLINATION>51.9871</INCLINATION><RA_OF_ASC_NODE>134.5178</RA_OF_ASC_NODE><ARG_OF_PERICENTER>67.1485</ARG_OF_PERICENTER><MEAN_ANOMALY>13.1341</MEAN_ANOMALY></meanElements><tleParameters><EPHEMERIS_TYPE>0</EPHEMERIS_TYPE><CLASSIFICATION_TYPE>U</CLASSIFICATION_TYPE><NORAD_CAT_ID>25677</NORAD_CAT_ID><ELEMENT_SET_NO>999</ELEMENT_SET_NO><REV_AT_EPOCH>16703</REV_AT_EPOCH><BSTAR>-.97735E-3</BSTAR><MEAN_MOTION_DOT>-.184E-5</MEAN_MOTION_DOT><MEAN_MOTION_DDOT>0</MEAN_MOTION_DDOT></tleParameters></data></segment></body></omm>
<omm id="CCSDS_OMM_VERS" version="2.0">
<header><CREATION_DATE/><ORIGINATOR/></header><body><segment><metadata><OBJECT_NAME>GLOBALSTAR M044</OBJECT_NAME><OBJECT_ID>1999-019C</OBJECT_ID><CENTER_NAME>EARTH</CENTER_NAME><REF_FRAME>TEME</REF_FRAME><TIME_SYSTEM>UTC</TIME_SYSTEM><MEAN_ELEMENT_THEORY>SGP4</MEAN_ELEMENT_THEORY></metadata><data><meanElements><EPOCH>2025-01-17T10:57:23.797152</EPOCH><MEAN_MOTION>11.90248639</MEAN_MOTION><ECCENTRICITY>.0006951</ECCENTRICITY><INCLINATION>51.9978</INCLINATION><RA_OF_ASC_NODE>67.1447</RA_OF_ASC_NODE><ARG_OF_PERICENTER>113.3406</ARG_OF_PERICENTER><MEAN_ANOMALY>19.6788</MEAN_ANOMALY></meanElements><tleParameters><EPHEMERIS_TYPE>0</EPHEMERIS_TYPE><CLASSIFICATION_TYPE>U</CLASSIFICATION_TYPE><NORAD_CAT_ID>25678</NORAD_CAT_ID><ELEMENT_SET_NO>999</ELEMENT_SET_NO><REV_AT_EPOCH>15335</REV_AT_EPOCH><BSTAR>.44463E-3</BSTAR><MEAN_MOTION_DOT>-.52E-6</MEAN_MOTION_DOT><MEAN_MOTION_DDOT>0</MEAN_MOTION_DDOT></tleParameters></data></segment></body></omm>
<omm id="CCSDS_OMM_VERS" version="2.0">
<header><CREATION_DATE/><ORIGINATOR/></header><body><segment><metadata><OBJECT_NAME>GLOBALSTAR M042</OBJECT_NAME><OBJECT_ID>1999-019D</OBJECT_ID><CENTER_NAME>EARTH</CENTER_NAME><REF_FRAME>TEME</REF_FRAME><TIME_SYSTEM>UTC</TIME_SYSTEM><MEAN_ELEMENT_THEORY>SGP4</MEAN_ELEMENT_THEORY></metadata><data><meanElements><EPOCH>2025-01-16T16:34:18.781824</EPOCH><MEAN_MOTION>12.22076626</MEAN_MOTION><ECCENTRICITY>.0002278</ECCENTRICITY><INCLINATION>52.0009</INCLINATION><RA_OF_ASC_NODE>118.6308</RA_OF_ASC_NODE><ARG_OF_PERICENTER>0.9120</ARG_OF_PERICENTER><MEAN_ANOMALY>147.4637</MEAN_ANOMALY></meanElements><tleParameters><EPHEMERIS_TYPE>0</EPHEMERIS_TYPE><CLASSIFICATION_TYPE>U</CLASSIFICATION_TYPE><NORAD_CAT_ID>25679</NORAD_CAT_ID><ELEMENT_SET_NO>999</ELEMENT_SET_NO><REV_AT_EPOCH>16673</REV_AT_EPOCH><BSTAR>.39649E-3</BSTAR><MEAN_MOTION_DOT>-.5E-6</MEAN_MOTION_DOT><MEAN_MOTION_DDOT>0</MEAN_MOTION_DDOT></tleParameters></data></segment></body></omm>
<omm id="CCSDS_OMM_VERS" version="2.0">
<header><CREATION_DATE/><ORIGINATOR/></header><body><segment><metadata><OBJECT_NAME>GLOBALSTAR M025</OBJECT_NAME><OBJECT_ID>1999-031A</OBJECT_ID><CENTER_NAME>EARTH</CENTER_NAME><REF_FRAME>TEME</REF_FRAME><TIME_SYSTEM>UTC</TIME_SYSTEM><MEAN_ELEMENT_THEORY>SGP4</MEAN_ELEMENT_THEORY></metadata><data><meanElements><EPOCH>2025-01-16T14:01:57.344736</EPOCH><MEAN_MOTION>11.22558660</MEAN_MOTION><ECCENTRICITY>.0000989</ECCENTRICITY><INCLINATION>51.9799</INCLINATION><RA_OF_ASC_NODE>150.4684</RA_OF_ASC_NODE><ARG_OF_PERICENTER>198.9236</ARG_OF_PERICENTER><MEAN_ANOMALY>271.2673</MEAN_ANOMALY></meanElements><tleParameters><EPHEMERIS_TYPE>0</EPHEMERIS_TYPE><CLASSIFICATION_TYPE>U</CLASSIFICATION_TYPE><NORAD_CAT_ID>25770</NORAD_CAT_ID><ELEMENT_SET_NO>999</ELEMENT_SET_NO><REV_AT_EPOCH>46468</REV_AT_EPOCH><BSTAR>-.6232E-3</BSTAR><MEAN_MOTION_DOT>-.88E-6</MEAN_MOTION_DOT><MEAN_MOTION_DDOT>0</MEAN_MOTION_DDOT></tleParameters></data></segment></body></omm>
<omm id="CCSDS_OMM_VERS" version="2.0">
<header><CREATION_DATE/><ORIGINATOR/></header><body><segment><metadata><OBJECT_NAME>GLOBALSTAR M049</OBJECT_NAME><OBJECT_ID>1999-031B</OBJECT_ID><CENTER_NAME>EARTH</CENTER_NAME><REF_FRAME>TEME</REF_FRAME><TIME_SYSTEM>UTC</TIME_SYSTEM><MEAN_ELEMENT_THEORY>SGP4</MEAN_ELEMENT_THEORY></metadata><data><meanElements><EPOCH>2025-01-17T10:29:44.168064</EPOCH><MEAN_MOTION>11.12111018</MEAN_MOTION><ECCENTRICITY>.0004608</ECCENTRICITY><INCLINATION>51.9837</INCLINATION><RA_OF_ASC_NODE>175.6802</RA_OF_ASC_NODE><ARG_OF_PERICENTER>114.7838</ARG_OF_PERICENTER><MEAN_ANOMALY>245.3438</MEAN_ANOMALY></meanElements><tleParameters><EPHEMERIS_TYPE>0</EPHEMERIS_TYPE><CLASSIFICATION_TYPE>U</CLASSIFICATION_TYPE><NORAD_CAT_ID>25771</NORAD_CAT_ID><ELEMENT_SET_NO>999</ELEMENT_SET_NO><REV_AT_EPOCH>10065</REV_AT_EPOCH><BSTAR>-.13194E-3</BSTAR><MEAN_MOTION_DOT>-.69E-6</MEAN_MOTION_DOT><MEAN_MOTION_DDOT>0</MEAN_MOTION_DDOT></tleParameters></data></segment></body></omm>
<omm id="CCSDS_OMM_VERS" version="2.0">
<header><CREATION_DATE/><ORIGINATOR/></header><body><segment><metadata><OBJECT_NAME>GLOBALSTAR M047</OBJECT_NAME><OBJECT_ID>1999-031C</OBJECT_ID><CENTER_NAME>EARTH</CENTER_NAME><REF_FRAME>TEME</REF_FRAME><TIME_SYSTEM>UTC</TIME_SYSTEM><MEAN_ELEMENT_THEORY>SGP4</MEAN_ELEMENT_THEORY></metadata><data><meanElements><EPOCH>2025-01-17T09:47:39.151392</EPOCH><MEAN_MOTION>11.31926102</MEAN_MOTION><ECCENTRICITY>.0016328</ECCENTRICITY><INCLINATION>51.9794</INCLINATION><RA_OF_ASC_NODE>187.1227</RA_OF_ASC_NODE><ARG_OF_PERICENTER>8.8145</ARG_OF_PERICENTER><MEAN_ANOMALY>351.2945</MEAN_ANOMALY></meanElements><tleParameters><EPHEMERIS_TYPE>0</EPHEMERIS_TYPE><CLASSIFICATION_TYPE>U</CLASSIFICATION_TYPE><NORAD_CAT_ID>25772</NORAD_CAT_ID><ELEMENT_SET_NO>999</ELEMENT_SET_NO><REV_AT_EPOCH>12880</REV_AT_EPOCH><BSTAR>-.20013E-3</BSTAR><MEAN_MOTION_DOT>-.77E-6</MEAN_MOTION_DOT><MEAN_MOTION_DDOT>0</MEAN_MOTION_DDOT></tleParameters></data></segment></body></omm>
<omm id="CCSDS_OMM_VERS" version="2.0">
<header><CREATION_DATE/><ORIGINATOR/></header><body><segment><metadata><OBJECT_NAME>GLOBALSTAR M052</OBJECT_NAME><OBJECT_ID>1999-031D</OBJECT_ID><CENTER_NAME>EARTH</CENTER_NAME><REF_FRAME>TEME</REF_FRAME><TIME_SYSTEM>UTC</TIME_SYSTEM><MEAN_ELEMENT_THEORY>SGP4</MEAN_ELEMENT_THEORY></metadata><data><meanElements><EPOCH>2025-01-16T11:43:13.717344</EPOCH><MEAN_MOTION>11.15057009</MEAN_MOTION><ECCENTRICITY>.0001969</ECCENTRICITY><INCLINATION>51.9876</INCLINATION><RA_OF_ASC_NODE>288.6449</RA_OF_ASC_NODE><ARG_OF_PERICENTER>299.7590</ARG_OF_PERICENTER><MEAN_ANOMALY>235.7584</MEAN_ANOMALY></meanElements><tleParameters><EPHEMERIS_TYPE>0</EPHEMERIS_TYPE><CLASSIFICATION_TYPE>U</CLASSIFICATION_TYPE><NORAD_CAT_ID>25773</NORAD_CAT_ID><ELEMENT_SET_NO>999</ELEMENT_SET_NO><REV_AT_EPOCH>46158</REV_AT_EPOCH><BSTAR>.18264E-2</BSTAR><MEAN_MOTION_DOT>-.11E-6</MEAN_MOTION_DOT><MEAN_MOTION_DDOT>0</MEAN_MOTION_DDOT></tleParameters></data></segment></body></omm>

</ndm>
